OBJECT_NAME,OBJECT_ID,EPOCH,MEAN_MOTION,ECCENTRICITY,INCLINATION,RA_OF_ASC_NODE,ARG_OF_PERICENTER,MEAN_ANOMALY,EPHEMERIS_TYPE,CLASSIFICATION_TYPE,NORAD_CAT_ID,ELEMENT_SET_NO,REV_AT_EPOCH,BSTAR,MEAN_MOTION_DOT,MEAN_MOTION_DDOT
STARLINK-33853,2025-085W,2025-11-04T14:30:55.317888,15.27580323,.0001442,43.0022,16.9989,294.0193,66.0508,0,U,63684,999,2974,.59967E-3,.16276E-3,0
STARLINK-33847,2025-085X,2025-11-04T21:26:24.805824,15.27584837,.00005988,43.0052,15.7249,299.0188,61.0604,0,U,63685,999,2978,.13485454E-2,.37039E-3,0
STARLINK-33880,2025-085Y,2025-11-04T21:44:54.896352,15.27567370,.0001421,43.0031,15.8208,278.2318,81.8372,0,U,63686,999,2989,.89262487E-3,.24373E-3,0
HULIANWANG DIGUI-20,2025-086A,2025-11-05T06:02:06.505152,13.24419080,.00020346,86.5098,28.5255,110.8557,249.2795,0,U,63687,999,2523,.16473456E-3,.85E-6,0
HULIANWANG DIGUI-21,2025-086B,2025-11-05T06:12:57.606048,13.24419120,.00020306,86.5127,28.5196,114.4023,245.7323,0,U,63688,999,2522,.16274478E-3,.85E-6,0
HULIANWANG DIGUI-22,2025-086C,2025-11-05T06:23:49.620192,13.24419143,.00020768,86.5092,28.4603,108.5410,251.5950,0,U,63689,999,2522,.1328694E-3,.72E-6,0
HULIANWANG DIGUI-23,2025-086D,2025-11-05T06:45:35.112096,13.24419039,.00019681,86.5133,28.5439,108.9830,251.1517,0,U,63690,999,2522,.83760859E-4,.51E-6,0
HULIANWANG DIGUI-24,2025-086E,2025-11-05T06:56:21.845472,13.24419823,.00020804,86.5140,28.5600,110.4712,249.6646,0,U,63691,999,2522,.77673441E-4,.48E-6,0
HULIANWANG DIGUI-25,2025-086F,2025-11-05T05:18:38.084832,13.24418320,.00020463,86.5079,28.4754,110.0035,250.1319,0,U,63692,999,2521,.1088475E-3,.61E-6,0
HULIANWANG DIGUI-26,2025-086G,2025-11-05T06:34:42.850848,13.24418859,.00021562,86.5128,28.5281,111.5457,248.5907,0,U,63693,999,2522,.10236296E-3,.59E-6,0
HULIANWANG DIGUI-27,2025-086H,2025-11-05T05:29:28.339872,13.24418731,.00020464,86.5088,28.4964,108.7436,251.3920,0,U,63694,999,2521,.13202035E-3,.71E-6,0
HULIANWANG DIGUI-28,2025-086J,2025-11-05T07:40:01.472736,13.24418123,.00020716,86.5052,28.4116,109.7831,250.3526,0,U,63695,999,2522,.17466266E-3,.9E-6,0
HULIANWANG DIGUI-29,2025-086K,2025-11-05T07:29:09.074976,13.24418496,.00019794,86.5080,28.4619,111.6146,248.5199,0,U,63696,999,2522,.14693608E-3,.78E-6,0
STARLINK-33894,2025-087A,2025-11-05T01:50:43.368576,15.30194942,.00016094,53.1554,78.1744,85.8858,274.2327,0,U,63697,999,3012,.11205632E-2,.32971E-3,0
STARLINK-33922,2025-087B,2025-11-05T01:44:38.416704,15.30188909,.00010199,53.1636,78.1443,87.1551,272.9566,0,U,63698,999,3011,.8606942E-3,.2521E-3,0
STARLINK-33919,2025-087C,2025-11-05T01:31:07.683168,15.30190568,.00013695,53.1616,78.7942,66.4266,293.6879,0,U,63699,999,3011,.1312856E-2,.38715E-3,0
STARLINK-33908,2025-087D,2025-11-05T02:08:57.412032,15.30193244,.00016798,53.1588,78.2508,77.2698,282.8490,0,U,63700,999,3012,.95797014E-3,.28115E-3,0
STARLINK-33950,2025-087E,2025-11-04T18:46:02.306496,15.30242704,.00008088,53.1601,79.8885,27.8123,332.2920,0,U,63701,999,3007,.1447878E-2,.42827E-3,0
STARLINK-33939,2025-087F,2025-11-04T21:49:35.135616,15.30195851,.00010235,53.1585,79.2586,98.9665,261.1451,0,U,63702,999,3009,.93423064E-3,.27409E-3,0
STARLINK-33868,2025-087G,2025-11-04T18:24:45.875232,15.30207321,.00012812,53.1581,79.7900,100.0398,260.0747,0,U,63703,999,3007,.10355318E-2,.30443E-3,0
STARLINK-33937,2025-087H,2025-11-05T01:40:04.862208,15.30193034,.00011938,53.1602,78.1238,93.7362,266.3775,0,U,63704,999,3012,.11047903E-2,.32498E-3,0
STARLINK-33848,2025-087J,2025-11-05T01:56:47.992128,15.30189312,.00012974,53.1577,78.1955,79.0904,281.0243,0,U,63705,999,3011,.97220416E-3,.28536E-3,0
STARLINK-33995,2025-087K,2025-11-05T01:23:31.606944,15.30192934,.00010838,53.1573,78.7593,85.8018,274.3107,0,U,63706,999,3011,.12700881E-2,.37439E-3,0
STARLINK-33982,2025-087L,2025-11-05T02:05:54.801312,15.30194401,.00009903,53.1597,78.2333,90.4031,269.7083,0,U,63707,999,3012,.14085034E-2,.41583E-3,0
STARLINK-33915,2025-087M,2025-11-05T02:22:38.619840,15.30184612,.00012965,53.1585,78.3080,81.3887,278.7260,0,U,63708,999,3012,.13341808E-2,.39346E-3,0
STARLINK-33862,2025-087N,2025-11-04T18:23:15.188064,15.30216570,.00022555,53.1564,79.7848,84.4502,275.6756,0,U,63709,999,3007,.10143879E-2,.29821E-3,0
STARLINK-33920,2025-087P,2025-11-04T17:22:37.123392,15.30222662,.00005871,53.1536,80.2316,77.7065,282.4001,0,U,63710,999,3006,.10195258E-2,.29979E-3,0
STARLINK-33580,2025-087Q,2025-11-05T01:26:34.156320,15.30195915,.00013867,53.1576,78.7751,80.6641,279.4516,0,U,63711,999,3011,.11340141E-2,.33374E-3,0
STARLINK-33783,2025-087R,2025-11-04T18:53:37.683744,15.30252254,.00010811,53.1597,79.9161,300.0358,60.0536,0,U,63712,999,3007,.16882958E-2,.50062E-3,0
STARLINK-33773,2025-087S,2025-11-05T01:53:45.587904,15.30191146,.00013117,53.1577,78.1802,83.0056,277.1094,0,U,63713,999,3012,.88957316E-3,.26073E-3,0
