63684,STARLINK-33853,2025,94.27,-1.0,+,43.0,Active,0,LEO,USA,USA,Unknown,Unknown,Unknown,1 63684U 25085W   25308.60480692  .00016276  00000+0  59967-3 0  9990,2 63684  43.0022  16.9989 0001442 294.0193  66.0508 15.27580323 29744,15.27580323,0.0001442,LEO
63685,STARLINK-33847,2025,94.26,-1.0,+,43.0,Active,0,LEO,USA,USA,Unknown,Unknown,Unknown,1 63685U 25085X   25308.89334266  .00037039  00000+0  13485-2 0  9991,2 63685  43.0052  15.7249 0000598 299.0188  61.0604 15.27584837 29784,15.27584837,5.98e-05,LEO
63686,STARLINK-33880,2025,94.27,-1.0,+,43.0,Active,0,LEO,USA,USA,Unknown,Unknown,Unknown,1 63686U 25085Y   25308.90619093  .00024373  00000+0  89262-3 0  9992,2 63686  43.0031  15.8208 0001421 278.2318  81.8372 15.27567370 29895,15.2756737,0.0001421,LEO
63687,HULIANWANG DIGUI-20,2025,108.73,-1.0,+,86.51,Active,0,LEO,PRC,China,Unknown,Unknown,Unknown,1 63687U 25086A   25309.25146418  .00000085  00000+0  16473-3 0  9997,2 63687  86.5098  28.5255 0002034 110.8557 249.2795 13.24419080 25233,13.2441908,0.0002034,LEO
63688,HULIANWANG DIGUI-21,2025,108.73,-1.0,+,86.51,Active,0,LEO,PRC,China,Unknown,Unknown,Unknown,1 63688U 25086B   25309.25900007  .00000085  00000+0  16274-3 0  9999,2 63688  86.5127  28.5196 0002030 114.4023 245.7323 13.24419120 25227,13.2441912,0.000203,LEO
63689,HULIANWANG DIGUI-22,2025,108.73,-1.0,+,86.51,Active,0,LEO,PRC,China,Unknown,Unknown,Unknown,1 63689U 25086C   25309.26654653  .00000072  00000+0  13287-3 0  9991,2 63689  86.5092  28.4603 0002076 108.5410 251.5950 13.24419143 25221,13.24419143,0.0002076,LEO
63690,HULIANWANG DIGUI-23,2025,108.73,-1.0,+,86.51,Active,0,LEO,PRC,China,Unknown,Unknown,Unknown,1 63690U 25086D   25309.28165639  .00000051  00000+0  83761-4 0  9998,2 63690  86.5133  28.5439 0001968 108.9830 251.1517 13.24419039 25225,13.24419039,0.0001968,LEO
63691,HULIANWANG DIGUI-24,2025,108.73,-1.0,+,86.51,Active,0,LEO,PRC,China,Unknown,Unknown,Unknown,1 63691U 25086E   25309.28914173  .00000048  00000+0  77673-4 0  9995,2 63691  86.5140  28.5600 0002080 110.4712 249.6646 13.24419823 25223,13.24419823,0.000208,LEO
63692,HULIANWANG DIGUI-25,2025,108.73,-1.0,+,86.51,Active,0,LEO,PRC,China,Unknown,Unknown,Unknown,1 63692U 25086F   25309.22127413  .00000061  00000+0  10885-3 0  9999,2 63692  86.5079  28.4754 0002046 110.0035 250.1319 13.24418320 25214,13.2441832,0.0002046,LEO
63693,HULIANWANG DIGUI-26,2025,108.73,-1.0,+,86.51,Active,0,LEO,PRC,China,Unknown,Unknown,Unknown,1 63693U 25086G   25309.27410707  .00000059  00000+0  10236-3 0  9993,2 63693  86.5128  28.5281 0002156 111.5457 248.5907 13.24418859 25224,13.24418859,0.0002156,LEO
63694,HULIANWANG DIGUI-27,2025,108.73,-1.0,+,86.51,Active,0,LEO,PRC,China,Unknown,Unknown,Unknown,1 63694U 25086H   25309.22880023  .00000071  00000+0  13202-3 0  9991,2 63694  86.5088  28.4964 0002046 108.7436 251.3920 13.24418731 25215,13.24418731,0.0002046,LEO
63695,HULIANWANG DIGUI-28,2025,108.73,-1.0,+,86.51,Active,0,LEO,PRC,China,Unknown,Unknown,Unknown,1 63695U 25086J   25309.31946149  .00000090  00000+0  17466-3 0  9991,2 63695  86.5052  28.4116 0002071 109.7831 250.3526 13.24418123 25221,13.24418123,0.0002071,LEO
63696,HULIANWANG DIGUI-29,2025,108.73,-1.0,+,86.51,Active,0,LEO,PRC,China,Unknown,Unknown,Unknown,1 63696U 25086K   25309.31191059  .00000078  00000+0  14694-3 0  9990,2 63696  86.5080  28.4619 0001979 111.6146 248.5199 13.24418496 25226,13.24418496,0.0001979,LEO
63697,STARLINK-33894,2025,94.11,-1.0,+,53.16,Active,0,LEO,USA,USA,Unknown,Unknown,Unknown,1 63697U 25087A   25309.07689084  .00032971  00000+0  11206-2 0  9997,2 63697  53.1554  78.1744 0001609  85.8858 274.2327 15.30194942 30126,15.30194942,0.0001609,LEO
63698,STARLINK-33922,2025,94.11,-1.0,+,53.16,Active,0,LEO,USA,USA,Unknown,Unknown,Unknown,1 63698U 25087B   25309.07266686  .00025210  00000+0  86069-3 0  9995,2 63698  53.1636  78.1443 0001019  87.1551 272.9566 15.30188909 30119,15.30188909,0.0001019,LEO
63699,STARLINK-33919,2025,94.1,-1.0,+,53.16,Active,0,LEO,USA,USA,Unknown,Unknown,Unknown,1 63699U 25087C   25309.06328337  .00038715  00000+0  13129-2 0  9997,2 63699  53.1616  78.7942 0001369  66.4266 293.6879 15.30190568 30110,15.30190568,0.0001369,LEO
63700,STARLINK-33908,2025,94.1,-1.0,+,53.16,Active,0,LEO,USA,USA,Unknown,Unknown,Unknown,1 63700U 25087D   25309.08955338  .00028115  00000+0  95797-3 0  9994,2 63700  53.1588  78.2508 0001679  77.2698 282.8490 15.30193244 30121,15.30193244,0.0001679,LEO
63701,STARLINK-33950,2025,94.11,-1.0,+,53.15,Active,0,LEO,USA,USA,Unknown,Unknown,Unknown,1 63701U 25087E   25308.78197114  .00042827  00000+0  14479-2 0  9994,2 63701  53.1601  79.8885 0000808  27.8123 332.2920 15.30242704 30078,15.30242704,8.08e-05,LEO
63702,STARLINK-33939,2025,94.1,-1.0,+,53.15,Active,0,LEO,USA,USA,Unknown,Unknown,Unknown,1 63702U 25087F   25308.90943444  .00027409  00000+0  93423-3 0  9990,2 63702  53.1585  79.2586 0001023  98.9665 261.1451 15.30195851 30093,15.30195851,0.0001023,LEO
63703,STARLINK-33868,2025,94.11,-1.0,+,53.16,Active,0,LEO,USA,USA,Unknown,Unknown,Unknown,1 63703U 25087G   25308.76719763  .00030443  00000+0  10355-2 0  9994,2 63703  53.1581  79.7900 0001281 100.0398 260.0747 15.30207321 30079,15.30207321,0.0001281,LEO
63704,STARLINK-33937,2025,94.1,-1.0,+,53.16,Active,0,LEO,USA,USA,Unknown,Unknown,Unknown,1 63704U 25087H   25309.06950072  .00032498  00000+0  11048-2 0  9991,2 63704  53.1602  78.1238 0001193  93.7362 266.3775 15.30193034 30123,15.30193034,0.0001193,LEO
63705,STARLINK-33848,2025,94.1,-1.0,+,53.16,Active,0,LEO,USA,USA,Unknown,Unknown,Unknown,1 63705U 25087J   25309.08111102  .00028536  00000+0  97220-3 0  9992,2 63705  53.1577  78.1955 0001297  79.0904 281.0243 15.30189312 30112,15.30189312,0.0001297,LEO
63706,STARLINK-33995,2025,94.11,-1.0,+,53.15,Active,0,LEO,USA,USA,Unknown,Unknown,Unknown,1 63706U 25087K   25309.05800471  .00037439  00000+0  12701-2 0  9996,2 63706  53.1573  78.7593 0001083  85.8018 274.3107 15.30192934 30115,15.30192934,0.0001083,LEO
63707,STARLINK-33982,2025,94.11,-1.0,+,53.16,Active,0,LEO,USA,USA,Unknown,Unknown,Unknown,1 63707U 25087L   25309.08743983  .00041583  00000+0  14085-2 0  9996,2 63707  53.1597  78.2333 0000990  90.4031 269.7083 15.30194401 30125,15.30194401,9.9e-05,LEO
63708,STARLINK-33915,2025,94.1,-1.0,+,53.16,Active,0,LEO,USA,USA,Unknown,Unknown,Unknown,1 63708U 25087M   25309.09905810  .00039346  00000+0  13342-2 0  9996,2 63708  53.1585  78.3080 0001296  81.3887 278.7260 15.30184612 30121,15.30184612,0.0001296,LEO
63709,STARLINK-33862,2025,94.1,-1.0,+,53.16,Active,0,LEO,USA,USA,Unknown,Unknown,Unknown,1 63709U 25087N   25308.76614801  .00029821  00000+0  10144-2 0  9991,2 63709  53.1564  79.7848 0002255  84.4502 275.6756 15.30216570 30079,15.3021657,0.0002255,LEO
63710,STARLINK-33920,2025,94.11,-1.0,+,53.16,Active,0,LEO,USA,USA,Unknown,Unknown,Unknown,1 63710U 25087P   25308.72404078  .00029979  00000+0  10195-2 0  9992,2 63710  53.1536  80.2316 0000587  77.7065 282.4001 15.30222662 30069,15.30222662,5.87e-05,LEO
63711,STARLINK-33580,2025,94.1,-1.0,+,53.16,Active,0,LEO,USA,USA,Unknown,Unknown,Unknown,1 63711U 25087Q   25309.06011755  .00033374  00000+0  11340-2 0  9994,2 63711  53.1576  78.7751 0001386  80.6641 279.4516 15.30195915 30113,15.30195915,0.0001386,LEO
63712,STARLINK-33783,2025,94.1,-1.0,+,53.16,Active,0,LEO,USA,USA,Unknown,Unknown,Unknown,1 63712U 25087R   25308.78724171  .00050062  00000+0  16883-2 0  9996,2 63712  53.1597  79.9161 0001081 300.0358  60.0536 15.30252254 30072,15.30252254,0.0001081,LEO
63713,STARLINK-33773,2025,94.1,-1.0,+,53.16,Active,0,LEO,USA,USA,Unknown,Unknown,Unknown,1 63713U 25087S   25309.07899986  .00026073  00000+0  88957-3 0  9994,2 63713  53.1577  78.1802 0001311  83.0056 277.1094 15.30191146 30121,15.30191146,0.0001311,LEO
